STARLINK-4568           
1 53622U 22104AL  23225.04361615 -.00002942  00000+0 -16675-3 0  9993
2 53622  53.2183 132.1257 0001148  99.4335 260.6786 15.08858552 53213
STARLINK-4573           
1 53623U 22104AM  23225.11995416 -.00000460  00000+0 -10813-4 0  9996
2 53623  53.2173 131.8911 0001107  97.9006 262.2111 15.08847080 53224
STARLINK-4596           
1 53624U 22104AN  23225.17514262  .00000143  00000+0  27061-4 0  9998
2 53624  53.2167 131.5249 0001233  91.2224 268.8909 15.08838844 53234
STARLINK-4603           
1 53625U 22104AP  23225.11258392  .00000475  00000+0  47895-4 0  9997
2 53625  53.2161 131.8408 0001389  88.7238 271.3914 15.08845919 53222
STARLINK-4554           
1 53626U 22104AQ  23225.16408171  .00001468  00000+0  11027-3 0  9995
2 53626  53.2166 131.4549 0001197  92.5248 267.5881 15.08843070 53238
STARLINK-4595           
1 53627U 22104AR  23225.10521590  .00000315  00000+0  37874-4 0  9990
2 53627  53.2170 131.7972 0001321  93.1238 266.9905 15.08841810 53221
STARLINK-4600           
1 53628U 22104AS  23225.15671038  .00000912  00000+0  75343-4 0  9995
2 53628  53.2168 131.4114 0001300 100.3693 259.7446 15.08848904 53239
STARLINK-4602           
1 53629U 22104AT  23225.69769685  .00000475  00000+0  47963-4 0  9992
2 53629  53.2165 129.0980 0001247  74.5529 285.5601 15.08833515 53312
STARLINK-4598           
1 53630U 22104AU  23225.06937116  .00000690  00000+0  61391-4 0  9991
2 53630  53.2174 122.3035 0001202  90.8162 269.2967 15.08852474 53359
STARLINK-4599           
1 53631U 22104AV  23224.76296428 -.00000719  00000+0 -27079-4 0  9991
2 53631  53.2166 133.2192 0001463  87.2211 272.8948 15.08840864 53179
STARLINK-4606           
1 53632U 22104AW  23225.12824761  .00003690  00000+0  24973-3 0  9998
2 53632  53.2158 121.9616 0001274  95.2479 264.8658 15.08849119 53363
STARLINK-4593           
1 53633U 22104AX  23224.99945072  .00004416  00000+0  29530-3 0  9993
2 53633  53.2167 122.5760 0001098  93.9474 266.1644 15.08847231 53346
STARLINK-4592           
1 53634U 22104AY  23225.12086960  .00000003  00000+0  18235-4 0  9991
2 53634  53.2165 121.9145 0001050  93.2929 266.8183 15.08851316 53367
STARLINK-4587           
1 53635U 22104AZ  23225.05832175  .00005230  00000+0  34635-3 0  9999
2 53635  53.2167 122.2349 0001421  89.5935 270.5219 15.08852720 53358
STARLINK-4586           
1 53636U 22104BA  23224.11990990  .00000437  00000+0  45550-4 0  9999
2 53636  53.2162 126.3296 0001522  81.7483 278.3681 15.08838337 53216
STARLINK-4396           
1 53637U 22104BB  23225.11718794  .00003503  00000+0  23795-3 0  9994
2 53637  53.2160 121.8921 0001175  83.2560 276.8566 15.08854983 53363
STARLINK-4594           
1 53638U 22104BC  23225.09508607  .00004577  00000+0  30547-3 0  9997
2 53638  53.2154 121.7560 0001072  85.9941 274.1173 15.08842531 53364
STARLINK-4422           
1 53639U 22104BD  23225.17605838  .00000851  00000+0  71521-4 0  9990
2 53639  53.2158 121.5532 0001498  77.2943 282.8216 15.08851635 53374
STARLINK-4597           
1 53640U 22104BE  23224.70870239  .00001647  00000+0  12158-3 0  9993
2 53640  53.2147 123.6084 0001608  78.6836 281.4337 15.08840652 53307
STARLINK-4588           
1 53641U 22104BF  23225.10245474  .00002838  00000+0  19633-3 0  9994
2 53641  53.2186 121.8008 0001484  76.7944 283.3214 15.08840789 53360
STARLINK-4622           
1 53648U 22105A   23225.64636978 -.00000368  00000+0 -24034-4 0  9994
2 53648  97.6549 105.8847 0001061 101.1059 259.0285 15.01256710 52642
STARLINK-4386           
1 53649U 22105B   23225.64451795  .00000311  00000+0  28794-4 0  9990
2 53649  97.6551 105.8826 0000982 116.3511 243.7814 15.01255528 52627
STARLINK-4380           
1 53650U 22105C   23225.10944727 -.00000668  00000+0 -47406-4 0  9993
2 53650  97.6540 105.3550 0000750 127.3209 232.8084 15.01255290 52540
STARLINK-4388           
1 53651U 22105D   23225.64081381 -.00000181  00000+0 -94828-5 0  9992
2 53651  97.6553 105.8779 0000949 164.0406 196.0848 15.01257104 52624
STARLINK-4374           
1 53652U 22105E   23225.63896467 -.00000583  00000+0 -40829-4 0  9998
2 53652  97.6556 105.8760 0001086 126.0233 234.1092 15.01255807 52620
STARLINK-4390           
1 53653U 22105F   23225.11645071  .00003890  00000+0  31380-3 0  9998
2 53653  97.6554 105.3339 0000938 134.0716 226.0585 15.00457337 52545
STARLINK-4420           
1 53654U 22105G   23225.10018590  .00000868  00000+0  72134-4 0  9993
2 53654  97.6566 105.3471 0001501 133.0756 227.0594 15.01263279 52548
STARLINK-4470           
1 53655U 22105H   23225.23719266 -.00000030  00000+0  22780-5 0  9991
2 53655  97.6557 105.4809 0001286 160.6275 199.4998 15.01257797 52567
STARLINK-4466           
1 53656U 22105J   23225.22793878  .00000614  00000+0  52425-4 0  9997
2 53656  97.6569 105.4825 0001364  91.6218 268.5163 15.01260602 52567
STARLINK-4469           
1 53657U 22105K   23225.70191035  .00000190  00000+0  19372-4 0  9991
2 53657  97.6553 105.9375 0000510 131.7634 228.3634 15.01259384 52636
STARLINK-4452           
1 53658U 22105L   23225.22979094 -.00000254  00000+0 -15146-4 0  9996
2 53658  97.6568 105.4759 0001362  99.7463 260.3915 15.01260126 52569
STARLINK-4463           
1 53659U 22105M   23225.23188752  .00000248  00000+0  23924-4 0  9995
2 53659  97.6560 105.4770 0001009 109.1994 250.9339 15.01259364 52565
STARLINK-4473           
1 53660U 22105N   23225.62414680 -.00001314  00000+0 -97676-4 0  9994
2 53660  97.6582 105.8736 0001850  90.3231 269.8205 15.01268316 52621
STARLINK-4472           
1 53661U 22105P   23225.69289646  .00001104  00000+0  90532-4 0  9993
2 53661  97.6594 105.9405 0001744  86.4528 273.6896 15.01264625 52635
STARLINK-4357           
1 53662U 22105Q   23225.75399780  .00002767  00000+0  21991-3 0  9990
2 53662  97.6580 106.0046 0002071 102.3916 257.7540 15.01259059 52642
STARLINK-4457           
1 53663U 22105R   23225.69265244  .00001750  00000+0  14077-3 0  9999
2 53663  97.6595 105.9371 0001606  89.2138 270.9271 15.01265589 52632
STARLINK-4471           
1 53664U 22105S   23225.75029400  .00002456  00000+0  19571-3 0  9997
2 53664  97.6572 106.0078 0002366  92.0177 268.1318 15.01258924 52640
STARLINK-4334           
1 53665U 22105T   23225.75190124  .00001110  00000+0  91032-4 0  9999
2 53665  97.6574 106.0139 0002181  94.2051 265.9423 15.01262539 52640
STARLINK-4449           
1 53666U 22105U   23225.21313232  .00000479  00000+0  41906-4 0  9990
2 53666  97.6561 105.4788 0003300  85.6064 274.5537 15.01259276 52569
STARLINK-4406           
1 53667U 22105V   23225.68893580 -.00006705  00000+0 -51739-3 0  9995
2 53667  97.6585 105.9391 0001977  87.9407 272.2043 15.01295569 52635
STARLINK-4458           
1 53668U 22105W   23225.74822204 -.00001296  00000+0 -96335-4 0  9990
2 53668  97.6563 106.0017 0003016  86.4639 273.6930 15.01244636 52646
STARLINK-4464           
1 53669U 22105X   23225.08723012  .00000660  00000+0  55932-4 0  9995
2 53669  97.6581 105.3407 0001610  93.2806 266.8603 15.01263254 52549
STARLINK-4459           
1 53670U 22105Y   23225.74449357 -.00002730  00000+0 -20795-3 0  9997
2 53670  97.6561 105.9988 0003582  82.1215 278.0416 15.01274925 52645
STARLINK-4440           
1 53671U 22105Z   23225.67809199  .00000660  00000+0  55976-4 0  9992
2 53671  97.6558 105.9361 0003904  79.8011 280.3654 15.01257760 52639
STARLINK-4428           
1 53672U 22105AA  23225.67624084  .00000269  00000+0  25522-4 0  9990
2 53672  97.6559 105.9270 0004413  75.3387 284.8326 15.01260266 52633
STARLINK-4456           
1 53673U 22105AB  23225.69685803 -.00002411  00000+0 -18728-3 0  9991
2 53673  97.6563 106.2691 0000936  93.9530 266.1800 15.00428147 52657
STARLINK-4620           
1 53674U 22105AC  23225.73893743  .00006555  00000+0  51407-3 0  9993
2 53674  97.6552 105.9919 0004693  65.9740 294.1974 15.01284299 52642
STARLINK-4617           
1 53675U 22105AD  23225.73339130  .00000473  00000+0  41393-4 0  9996
2 53675  97.6538 106.0023 0004905  72.7736 287.4025 15.01259570 52648
STARLINK-4621           
1 53676U 22105AE  23225.66858968  .00001916  00000+0  15375-3 0  9997
2 53676  97.6539 105.9189 0004270  59.0701 301.0942 15.01257090 52631
STARLINK-4579           
1 53677U 22105AF  23225.67415329  .00012489  00000+0  97658-3 0  9990
2 53677  97.6558 105.9286 0004726  75.8501 284.3248 15.01199691 52635
STARLINK-4418           
1 53678U 22105AG  23225.14278019  .00000022  00000+0  63208-5 0  9992
2 53678  97.6556 105.3848 0004293  77.6725 282.4980 15.01256929 52550
STARLINK-4632           
1 53679U 22105AH  23225.67044174  .00001085  00000+0  89025-4 0  9998
2 53679  97.6548 105.9223 0004383  55.1065 305.0571 15.01256428 52634
STARLINK-4630           
1 53680U 22105AJ  23225.12981400 -.00000956  00000+0 -69874-4 0  9990
2 53680  97.6551 105.3830 0002857  73.4412 286.7126 15.01257468 52558
STARLINK-4424           
1 53681U 22105AK  23224.66535684  .00000520  00000+0  45072-4 0  9997
2 53681  97.6544 104.9313 0004183  54.9037 305.2579 15.01270100 52482
STARLINK-4438           
1 53682U 22105AL  23225.65192462 -.00000952  00000+0 -69561-4 0  9991
2 53682  97.6552 105.9108 0001551  90.9694 269.1708 15.01251915 52632
STARLINK-4625           
1 53683U 22105AM  23225.13167271  .00002449  00000+0  19515-3 0  9999
2 53683  97.6541 105.3862 0004306  69.8651 290.3036 15.01268507 52557
STARLINK-4624           
1 53684U 22105AN  23224.75025748  .00000220  00000+0  21691-4 0  9993
2 53684  97.6568 105.0830 0002578  93.1832 266.9687 15.01266230 52494
STARLINK-4626           
1 53685U 22105AP  23225.12796670 -.00000470  00000+0 -31961-4 0  9995
2 53685  97.6551 105.3795 0002771  89.3496 270.8046 15.01253571 52552
STARLINK-4467           
1 53686U 22105AQ  23225.09832804  .00000553  00000+0  47646-4 0  9999
2 53686  97.6567 105.4074 0001269  85.5024 274.6345 15.01264731 52551
